ONEWEB-0324             
1 49193U 21083H   21295.25002315 -.00501766  00000-0 -91142-1 0  9992
2 49193  87.5509 315.6817 0021042 167.0084  75.9217 14.68488405  6946
ONEWEB-0325             
1 49194U 21083J   21294.91667824 -.01335269  00000-0 -24407+0 0  9999
2 49194  87.5416 315.7771 0019385 163.2827  27.7533 14.69144626  3582
ONEWEB-0326             
1 49195U 21083K   21294.91667824 -.01346652  00000-0 -23293+0 0  9990
2 49195  87.5407 315.7430 0023244 158.2753 326.4584 14.71506163  3582
ONEWEB-0327             
1 49196U 21083L   21294.91667824 -.01361099  00000-0 -24659+0 0  9990
2 49196  87.5524 315.8196 0022464 166.4663 121.0777 14.69539929  3594
ONEWEB-0328             
1 49197U 21083M   21294.91667824  .00060557  00000-0  66900-2 0  9991
2 49197  87.1967 315.0811 0019434 164.3769 254.3405 14.86994253  3586
ONEWEB-0331             
1 49198U 21083N   21294.91667824 -.01252986  00000-0 -20682+0 0  9998
2 49198  87.5440 315.6682 0020890 169.2292 317.5114 14.73871531  3591
ONEWEB-0333             
1 49199U 21083P   21294.91667824  .00059433  00000-0  65607-2 0  9997
2 49199  87.2005 315.0986 0019150 164.0284 211.4927 14.87035839  3578
ONEWEB-0334             
1 49200U 21083Q   21294.91667824  .00065266  00000-0  68150-2 0  9997
2 49200  87.1984 315.0466 0021922 158.7099 114.2083 14.89219136  6924
ONEWEB-0335             
1 49201U 21083R   21294.91667824  .00067244  00000-0  74038-2 0  9998
2 49201  87.2012 315.1120 0022628 155.6323   8.3906 14.87045284  3581
ONEWEB-0336             
1 49202U 21083S   21294.91667824  .00067195  00000-0  74082-2 0  9993
2 49202  87.1986 315.1003 0020000 152.7539  86.3582 14.87032070  3585
ONEWEB-0337             
1 49203U 21083T   21294.91667824  .00067808  00000-0  74664-2 0  9991
2 49203  87.1993 315.1039 0021904 157.5283  63.2909 14.87051407  3588
ONEWEB-0338             
1 49204U 21083U   21294.91667824  .00067432  00000-0  69743-2 0  9997
2 49204  87.2046 315.0720 0021266 166.0397 351.1353 14.89602897  6927
ONEWEB-0339             
1 49205U 21083V   21294.91667824  .00063804  00000-0  70401-2 0  9990
2 49205  87.1976 315.0904 0019974 157.5663 131.7633 14.87018397  3594
ONEWEB-0340             
1 49206U 21083W   21295.25002315 -.01435802  00000-0 -26341+0 0  9992
2 49206  87.5471 315.6662 0019541 167.0248 100.6963 14.69225182  6946
ONEWEB-0341             
1 49207U 21083X   21294.91667824 -.01343527  00000-0 -23909+0 0  9996
2 49207  87.5453 315.7703 0020868 168.3881 150.3368 14.70308460  3586
ONEWEB-0342             
1 49208U 21083Y   21294.91667824  .00061757  00000-0  63871-2 0  9991
2 49208  87.2004 315.0576 0022519 154.5484 162.8250 14.89615248  3604
ONEWEB-0343             
1 49209U 21083Z   21294.91667824 -.01239301  00000-0 -20203+0 0  9996
2 49209  87.5527 315.7057 0022739 162.0505  27.3952 14.74331278  3595
ONEWEB-0344             
1 49210U 21083AA  21294.91667824  .00067653  00000-0  74323-2 0  9999
2 49210  87.1968 315.0954 0021843 154.7902  19.0141 14.87146621  3582
ONEWEB-0345             
1 49211U 21083AB  21295.25002315 -.00046504  00000-0 -52057-2 0  9990
2 49211  87.1987 314.9831 0020957 156.1429  36.6491 14.87097035  6963
ONEWEB-0346             
1 49212U 21083AC  21294.91667824 -.01348546  00000-0 -24446+0 0  9995
2 49212  87.5496 315.7888 0020211 169.1204  88.2643 14.69525467  3584
ONEWEB-0348             
1 49213U 21083AD  21294.91667824  .00064443  00000-0  66667-2 0  9998
2 49213  87.2030 315.0702 0021667 158.4564 124.4388 14.89603497  3581
ONEWEB-0350             
1 49214U 21083AE  21294.91667824  .00061956  00000-0  68354-2 0  9990
2 49214  87.1991 315.0955 0018324 161.8929 149.7140 14.87055968  3584
ONEWEB-0351             
1 49215U 21083AF  21294.91667824  .00060698  00000-0  62904-2 0  9998
2 49215  87.1961 315.0398 0019833 150.9423 263.1145 14.89580212  6932
ONEWEB-0352             
1 49216U 21083AG  21294.91667824  .00064618  00000-0  71303-2 0  9998
2 49216  87.1991 315.1012 0018979 159.3812 119.2500 14.87025357  6911
ONEWEB-0354             
1 49217U 21083AH  21294.91667824  .00062861  00000-0  65102-2 0  9997
2 49217  87.2012 315.0532 0020153 150.9137 151.9623 14.89591057  3594
ONEWEB-0355             
1 49218U 21083AJ  21294.91667824  .00059587  00000-0  65691-2 0  9992
2 49218  87.1967 315.0797 0018803 163.3406 193.8728 14.87092994  3586
ONEWEB-0357             
1 49219U 21083AK  21294.91667824  .00067224  00000-0  69574-2 0  9994
2 49219  87.2010 315.0587 0021236 159.2045  84.1336 14.89577491  3591
ONEWEB-0332             
1 49279U 21090A   21295.25002315 -.00000846  00000-0 -22428-4 0  9992
2 49279  87.3974 290.9124 0006094 222.6993  90.7533 15.39964351  1206
ONEWEB-0347             
1 49280U 21090B   21295.25002315 -.00001932  00000-0 -51942-4 0  9994
2 49280  87.3964 290.9141 0006499 261.3730  15.1902 15.38637352  1202
ONEWEB-0349             
1 49281U 21090C   21295.25002315 -.00002757  00000-0 -66505-4 0  9992
2 49281  87.3984 290.9047 0008315 241.2107 121.5138 15.41730488  2497
ONEWEB-0353             
1 49282U 21090D   21295.25002315 -.00001061  00000-0 -28370-4 0  9998
2 49282  87.3943 290.9099 0007807 239.1672  58.2846 15.39384337  2495
ONEWEB-0356             
1 49283U 21090E   21295.25002315 -.00001243  00000-0 -31672-4 0  9990
2 49283  87.3965 290.9079 0004003 249.0294  84.9579 15.40702415  2495
ONEWEB-0358             
1 49284U 21090F   21295.25002315 -.00002938  00000-0 -74774-4 0  9993
2 49284  87.3976 290.9090 0005598 220.1981  96.7933 15.40088502  2493
ONEWEB-0359             
1 49285U 21090G   21295.25002315 -.00000129  00000-0 -45474-5 0  9990
2 49285  87.3958 290.9112 0007169 256.3549  26.9352 15.38876269  2487
ONEWEB-0360             
1 49286U 21090H   21295.25002315 -.00001209  00000-0 -30949-4 0  9991
2 49286  87.3971 290.9069 0003730 237.4926  93.4618 15.40591866  2498
ONEWEB-0361             
1 49287U 21090J   21295.25002315 -.00001277  00000-0 -32244-4 0  9997
2 49287  87.3975 290.9066 0004930 255.0333  85.7670 15.40948210  2492
ONEWEB-0362             
1 49288U 21090K   21295.25002315 -.00000193  00000-0 -64009-5 0  9999
2 49288  87.3991 290.9223 0004577 237.3085  17.8069 15.37852251  2482
ONEWEB-0363             
1 49289U 21090L   21295.25002315 -.00001220  00000-0 -31244-4 0  9996
2 49289  87.3984 290.9081 0003527 244.6724  85.5626 15.40565469  2490
ONEWEB-0364             
1 49290U 21090M   21295.25002315 -.00000186  00000-0 -60205-5 0  9998
2 49290  87.3970 290.9149 0007618 254.2098  32.0241 15.38981581  2481
ONEWEB-0365             
1 49291U 21090N   21295.25002315 -.00000314  00000-0 -97459-5 0  9993
2 49291  87.3977 290.9210 0005260 227.9156  20.8446 15.37625743  2487
ONEWEB-0366             
1 49292U 21090P   21295.25002315 -.00000772  00000-0 -20645-4 0  9994
2 49292  87.3979 290.9089 0006558 224.3349  86.0478 15.39854844  2498
ONEWEB-0367             
1 49293U 21090Q   21295.25002315 -.00001163  00000-0 -29913-4 0  9997
2 49293  87.4000 290.9117 0003935 231.2266  96.6924 15.40482046  2494
ONEWEB-0368             
1 49294U 21090R   21295.25002315 -.00000978  00000-0 -26348-4 0  9990
2 49294  87.3987 290.9144 0007876 243.5645  50.1144 15.39249435  2493
ONEWEB-0369             
1 49295U 21090S   21295.16667824 -.00051996  00000-0 -14149-2 0  9993
2 49295  87.3951 290.9460 0004937 232.5479 278.5637 15.37780051  2466
ONEWEB-0370             
1 49296U 21090T   21295.25002315 -.00000851  00000-0 -21474-4 0  9997
2 49296  87.3992 290.9078 0007432 245.9582 109.6121 15.41475907  2494
ONEWEB-0371             
1 49297U 21090U   21295.25002315 -.00000095  00000-0 -37466-5 0  9997
2 49297  87.3974 290.9177 0003769 254.9046   6.8202 15.38088313  2483
ONEWEB-0372             
1 49298U 21090V   21295.25002315 -.00002910  00000-0 -70423-4 0  9995
2 49298  87.3967 290.9007 0007908 243.1387 116.3866 15.41615073  2492
ONEWEB-0373             
1 49299U 21090W   21295.25002315 -.00000672  00000-0 -18192-4 0  9994
2 49299  87.3976 290.9120 0007059 226.1421  80.5071 15.39717396  2494
ONEWEB-0374             
1 49300U 21090X   21295.25002315  .00001834  00000-0  47250-4 0  9993
2 49300  87.3962 290.9159 0005504 264.3856   7.3998 15.38460662  2487
ONEWEB-0375             
1 49301U 21090Y   21295.25002315 -.00001062  00000-0 -27630-4 0  9999
2 49301  87.3988 290.9108 0004621 219.9552 101.1204 15.40238246  2496
ONEWEB-0376             
1 49302U 21090Z   21295.25002315  .00001702  00000-0  44470-4 0  9990
2 49302  87.3965 290.9174 0004305 242.8897  15.7098 15.37980911  2479
ONEWEB-0377             
1 49303U 21090AA  21295.25002315 -.00000756  00000-0 -20973-4 0  9993
2 49303  87.3977 290.9179 0006841 259.7731  19.7974 15.38739874  2477
ONEWEB-0378             
1 49304U 21090AB  21295.25002315  .00000947  00000-0  20771-4 0  9990
2 49304  87.3984 290.9009 0009049 213.3355 171.3793 15.42518661  2501
ONEWEB-0379             
1 49305U 21090AC  21295.25002315 -.00000229  00000-0 -70878-5 0  9990
2 49305  87.3956 290.9121 0008018 246.8107  43.8834 15.39147510  2491
ONEWEB-0380             
1 49306U 21090AD  21295.25002315 -.00000079  00000-0 -32910-5 0  9999
2 49306  87.3951 290.9168 0004563 258.9818   6.0618 15.38216159  2476
ONEWEB-0381             
1 49307U 21090AE  21295.25002315 -.00001250  00000-0 -31711-4 0  9999
2 49307  87.3994 290.9069 0004430 252.1388  84.9739 15.40814367  2494
ONEWEB-0382             
1 49308U 21090AF  21295.25002315 -.00002059  00000-0 -49216-4 0  9997
2 49308  87.3969 290.9012 0008956 222.7435 152.2742 15.42169036  2501
ONEWEB-0383             
1 49309U 21090AG  21295.25002315 -.00001194  00000-0 -31660-4 0  9991
2 49309  87.3973 290.9120 0007738 235.7415  64.7797 15.39495857  2489
ONEWEB-0384             
1 49310U 21090AH  21295.25002315  .00000412  00000-0  84896-5 0  9993
2 49310  87.3997 290.9029 0008972 219.8788 157.9883 15.42273170  2502
